HISPASAT 30W-6          
1 43228U 18023A   26060.44116620 -.00000235  00000+0  00000+0 0  9990
2 43228   0.0441  42.3688 0005294 313.8848 291.7750  1.00271221 29329
SUPERBIRD-B3            
1 43271U 18033A   26060.37731838 -.00000111  00000+0  00000+0 0  9998
2 43271   0.0194 232.0360 0001393 107.7245 117.2157  1.00270996 28975
HYLAS 4                 
1 43272U 18033B   26060.29790556 -.00000252  00000+0  00000+0 0  9998
2 43272   0.0131 109.4475 0001185 242.8471 240.4993  1.00269456 28989
IRNSS-1I                
1 43286U 18035A   26060.12336356  .00000076  00000+0  00000+0 0  9994
2 43286  28.9216  75.8655 0019256 189.8352 352.6928  1.00276166 28990
USA 283                 
1 43339U 18036A   26059.54662199 -.00000335  00000+0  00000+0 0  9994
2 43339   0.0092 146.1125 0000609 207.6918 135.4057  1.00269721 24204
COSMOS 2526             
1 43432U 18037A   26060.47253968 -.00000363  00000+0  00000+0 0  9994
2 43432   0.0147 151.1615 0000577 307.3004 358.9681  1.00273026 28872
APSTAR-6C               
1 43450U 18041A   26060.50102257 -.00000336  00000+0  00000+0 0  9997
2 43450   0.0373 334.0041 0003211   2.3939 137.2461  1.00273607 28739
BANGABANDHUSAT-1        
1 43463U 18044A   26060.46711506 -.00000381  00000+0  00000+0 0  9992
2 43463   0.0251 111.5899 0002367 231.8390 103.0758  1.00272127 28622
SES-12                  
1 43488U 18049A   26060.51213044  .00000000  00000+0  00000+0 0  9991
2 43488   0.0220 113.3741 0002303 187.0163 138.3006  1.00269001 28333
FENGYUN 2H              
1 43491U 18050A   26060.39124598 -.00000144  00000+0  00000+0 0  9998
2 43491   2.7521  80.3886 0002074 173.4178 125.2779  1.00272561 28352
TELSTAR 19V             
1 43562U 18059A   26060.43466618 -.00000298  00000+0  00000+0 0  9993
2 43562   0.0204 168.4105 0000396 246.7656 197.5066  1.00270988 28062
TELKOM 4 (MERAH PUTIH)  
1 43587U 18064A   26060.39722601 -.00000362  00000+0  00000+0 0  9990
2 43587   0.0124 154.0881 0001529 214.2728  41.8168  1.00271778 27792
TELSTAR 18V             
1 43611U 18069A   26060.46155991 -.00000312  00000+0  00000+0 0  9998
2 43611   0.0207 235.4858 0002240 101.2825 126.6331  1.00272939 27552
AZERSPACE 2 (IS-38)     
1 43632U 18074A   26060.22267191  .00000000  00000+0  00000+0 0  9990
2 43632   0.0240 150.6632 0001464 188.0494 305.6030  1.00268768 27361
HORIZONS-3E             
1 43633U 18074B   26060.37453449 -.00000049  00000+0  00000+0 0  9994
2 43633   0.0030 233.9244 0000704  86.7354 142.3058  1.00271795 27267
BEIDOU-3 G1             
1 43683U 18085A   26060.55367641 -.00000296  00000+0  00000+0 0  9993
2 43683   2.8027 100.4722 0001254  33.4453   4.8085  1.00269352 26983
GSAT-29                 
1 43698U 18089A   26060.45780629  .00000067  00000+0  00000+0 0  9992
2 43698   0.0645 273.6125 0001924  45.2649  60.1968  1.00270398 26704
ES'HAIL 2               
1 43700U 18090A   26060.30960560  .00000126  00000+0  00000+0 0  9992
2 43700   0.0143 111.6653 0002672 262.8086 281.8657  1.00273334 26598
GEO-KOMPSAT-2A          
1 43823U 18100A   26059.50554706 -.00000362  00000+0  00000+0 0  9994
2 43823   0.0143  67.9082 0001217 328.9393  71.7104  1.00270672 26542
GSAT-11                 
1 43824U 18100B   26060.39046598 -.00000095  00000+0  00000+0 0  9992
2 43824   0.0930 271.1064 0004699 142.8989 319.7253  1.00271373 26399
GSAT-7A                 
1 43864U 18105A   26060.49991884  .00000009  00000+0  00000+0 0  9993
2 43864   0.1060 276.9671 0002091  47.6959  77.3335  1.00269974 26367
COSMOS 2533             
1 43867U 18107A   26057.20650093 -.00000048  00000+0  00000+0 0  9991
2 43867   0.0167 122.8059 0000561 306.0769 231.4692  1.00271550 26325
TJS-3                   
1 43874U 18110A   26060.74953281 -.00000228  00000+0  00000+0 0  9991
2 43874   2.2678  81.8211 0016584 344.7756  88.9036  1.00349827 26347
ZHONGXING-2D            
1 43920U 19001A   26060.47288635 -.00000355  00000+0  00000+0 0  9998
2 43920   0.0575 286.7070 0001324 359.1501 173.6473  1.00272988 53007
HELLAS-SAT 4 & SGS-1    
1 44034U 19007A   26060.24096530  .00000134  00000+0  00000+0 0  9991
2 44034   0.0651 124.6326 0003045  32.7664 127.4039  1.00266363 26284
GSAT-31                 
1 44035U 19007B   26060.32961479  .00000107  00000+0  00000+0 0  9994
2 44035   0.0455 275.9145 0004993  24.2909  25.4566  1.00271888 25882
NUSANTARA SATU          
1 44048U 19009A   26060.40476604 -.00000253  00000+0  00000+0 0  9993
2 44048   0.0250 134.4235 0001210 317.3396 359.1363  1.00271112 25683
ZHONGXING-6C            
1 44067U 19012A   26060.47297302 -.00000354  00000+0  00000+0 0  9993
2 44067   0.0355  49.3386 0008389 339.1614  71.4440  1.00271550 25664
WGS 10 (USA 291)        
1 44071U 19014A   26060.17379833  .00000029  00000+0  00000+0 0  9995
2 44071   0.0198 125.6743 0000307 193.3817 322.7617  1.00268582 25531
TIANLIAN 2-01           
1 44076U 19017A   26060.39107265 -.00000124  00000+0  00000+0 0  9992
2 44076   0.2609  82.1201 0003434 219.3308  75.5174  1.00271410 25567
ARABSAT-6A              
1 44186U 19021A   26060.31055895  .00000135  00000+0  00000+0 0  9993
2 44186   0.0575 346.0699 0003679 331.0446 344.2345  1.00269466 25078
BEIDOU-3 IGSO-1         
1 44204U 19023A   26060.32832569 -.00000199  00000+0  00000+0 0  9999
2 44204  58.5492  38.7573 0026000 236.5602 121.2372  1.00271445  6125
