OBJECT_NAME,OBJECT_ID,EPOCH,MEAN_MOTION,ECCENTRICITY,INCLINATION,RA_OF_ASC_NODE,ARG_OF_PERICENTER,MEAN_ANOMALY,EPHEMERIS_TYPE,CLASSIFICATION_TYPE,NORAD_CAT_ID,ELEMENT_SET_NO,REV_AT_EPOCH,BSTAR,MEAN_MOTION_DOT,MEAN_MOTION_DDOT
HISPASAT 30W-6,2018-023A,2026-03-01T10:35:16.759680,1.00271221,.0005294,0.0441,42.3688,313.8848,291.7750,0,U,43228,999,2932,0,-.235E-5,0
SUPERBIRD-B3,2018-033A,2026-03-01T09:03:20.308032,1.00270996,.0001393,0.0194,232.0360,107.7245,117.2157,0,U,43271,999,2897,0,-.111E-5,0
HYLAS 4,2018-033B,2026-03-01T07:08:59.040384,1.00269456,.0001185,0.0131,109.4475,242.8471,240.4993,0,U,43272,999,2898,0,-.252E-5,0
IRNSS-1I,2018-035A,2026-03-01T02:57:38.611584,1.00276166,.0019256,28.9216,75.8655,189.8352,352.6928,0,U,43286,999,2899,0,.76E-6,0
USA 283,2018-036A,2026-02-28T13:07:08.139936,1.00269721,.0000609,0.0092,146.1125,207.6918,135.4057,0,U,43339,999,2420,0,-.335E-5,0
COSMOS 2526,2018-037A,2026-03-01T11:20:27.428352,1.00273026,.0000577,0.0147,151.1615,307.3004,358.9681,0,U,43432,999,2887,0,-.363E-5,0
APSTAR-6C,2018-041A,2026-03-01T12:01:28.350048,1.00273607,.0003211,0.0373,334.0041,2.3939,137.2461,0,U,43450,999,2873,0,-.336E-5,0
BANGABANDHUSAT-1,2018-044A,2026-03-01T11:12:38.741184,1.00272127,.0002367,0.0251,111.5899,231.8390,103.0758,0,U,43463,999,2862,0,-.381E-5,0
SES-12,2018-049A,2026-03-01T12:17:28.070016,1.00269001,.0002303,0.0220,113.3741,187.0163,138.3006,0,U,43488,999,2833,0,0,0
FENGYUN 2H,2018-050A,2026-03-01T09:23:23.652672,1.00272561,.0002074,2.7521,80.3886,173.4178,125.2779,0,U,43491,999,2835,0,-.144E-5,0
TELSTAR 19V,2018-059A,2026-03-01T10:25:55.157952,1.00270988,.0000396,0.0204,168.4105,246.7656,197.5066,0,U,43562,999,2806,0,-.298E-5,0
TELKOM 4 (MERAH PUTIH),2018-064A,2026-03-01T09:32:00.327264,1.00271778,.0001529,0.0124,154.0881,214.2728,41.8168,0,U,43587,999,2779,0,-.362E-5,0
TELSTAR 18V,2018-069A,2026-03-01T11:04:38.776224,1.00272939,.000224,0.0207,235.4858,101.2825,126.6331,0,U,43611,999,2755,0,-.312E-5,0
AZERSPACE 2 (IS-38),2018-074A,2026-03-01T05:20:38.853024,1.00268768,.0001464,0.0240,150.6632,188.0494,305.6030,0,U,43632,999,2736,0,0,0
HORIZONS-3E,2018-074B,2026-03-01T08:59:19.779936,1.00271795,.0000704,0.0030,233.9244,86.7354,142.3058,0,U,43633,999,2726,0,-.49E-6,0
BEIDOU-3 G1,2018-085A,2026-03-01T13:17:17.641824,1.00269352,.0001254,2.8027,100.4722,33.4453,4.8085,0,U,43683,999,2698,0,-.296E-5,0
GSAT-29,2018-089A,2026-03-01T10:59:14.463456,1.00270398,.0001924,0.0645,273.6125,45.2649,60.1968,0,U,43698,999,2670,0,.67E-6,0
ES'HAIL 2,2018-090A,2026-03-01T07:25:49.923840,1.00273334,.0002672,0.0143,111.6653,262.8086,281.8657,0,U,43700,999,2659,0,.126E-5,0
GEO-KOMPSAT-2A,2018-100A,2026-02-28T12:07:59.265984,1.00270672,.00012178,0.0143,67.9082,328.9393,71.7104,0,U,43823,999,2654,0,-.362E-5,0
GSAT-11,2018-100B,2026-03-01T09:22:16.260672,1.00271373,.0004699,0.0930,271.1064,142.8989,319.7253,0,U,43824,999,2639,0,-.95E-6,0
GSAT-7A,2018-105A,2026-03-01T11:59:52.987776,1.00269974,.0002091,0.1060,276.9671,47.6959,77.3335,0,U,43864,999,2636,0,.9E-7,0
COSMOS 2533,2018-107A,2026-02-26T04:57:21.680352,1.00271550,.0000561,0.0167,122.8059,306.0769,231.4692,0,U,43867,999,2632,0,-.48E-6,0
TJS-3,2018-110A,2026-03-01T17:59:19.634784,1.00349827,.0016584,2.2678,81.8211,344.7756,88.9036,0,U,43874,999,2634,0,-.228E-5,0
ZHONGXING-2D,2019-001A,2026-03-01T11:20:57.380640,1.00272988,.0001324,0.0575,286.7070,359.1501,173.6473,0,U,43920,999,5300,0,-.355E-5,0
HELLAS-SAT 4 & SGS-1,2019-007A,2026-03-01T05:46:59.401920,1.00266363,.0003045,0.0651,124.6326,32.7664,127.4039,0,U,44034,999,2628,0,.134E-5,0
GSAT-31,2019-007B,2026-03-01T07:54:38.717856,1.00271888,.0004993,0.0455,275.9145,24.2909,25.4566,0,U,44035,999,2588,0,.107E-5,0
NUSANTARA SATU,2019-009A,2026-03-01T09:42:51.785856,1.00271112,.000121,0.0250,134.4235,317.3396,359.1363,0,U,44048,999,2568,0,-.253E-5,0
ZHONGXING-6C,2019-012A,2026-03-01T11:21:04.868928,1.00271550,.0008389,0.0355,49.3386,339.1614,71.4440,0,U,44067,999,2566,0,-.354E-5,0
WGS 10 (USA 291),2019-014A,2026-03-01T04:10:16.175712,1.00268582,.0000307,0.0198,125.6743,193.3817,322.7617,0,U,44071,999,2553,0,.29E-6,0
TIANLIAN 2-01,2019-017A,2026-03-01T09:23:08.676960,1.00271410,.0003434,0.2609,82.1201,219.3308,75.5174,0,U,44076,999,2556,0,-.124E-5,0
ARABSAT-6A,2019-021A,2026-03-01T07:27:12.293280,1.00269466,.0003679,0.0575,346.0699,331.0446,344.2345,0,U,44186,999,2507,0,.135E-5,0
BEIDOU-3 IGSO-1,2019-023A,2026-03-01T07:52:47.339616,1.00271445,.0026,58.5492,38.7573,236.5602,121.2372,0,U,44204,999,612,0,-.199E-5,0
